{
  "type": "FeatureCollection",
  "features": [
    {
      "type": "Feature",
      "properties": {
        "norad_id": 34833,
        "name": "IRIDIUM 33 DEB",
        "group": "iridium-33-debris",
        "lat": 65.32259820773677,
        "lon": 52.49536469663111,
        "alt_km": 696.7333948800069,
        "timestamp": "2025-12-27T13:34:49.680841+00:00",
        "meta_object_name": "IRIDIUM 33 DEB",
        "meta_object_id": "1997-051MH",
        "meta_epoch": "2025-12-27T03:36:29.185920",
        "meta_mean_motion": 14.52459738,
        "meta_eccentricity": 0.00210883,
        "meta_inclination": 86.3923,
        "meta_ra_of_asc_node": 44.7821,
        "meta_arg_of_pericenter": 54.3467,
        "meta_mean_anomaly": 359.944,
        "meta_ephemeris_type": 0,
        "meta_classification_type": "U",
        "meta_norad_cat_id": 34833,
        "meta_element_set_no": 999,
        "meta_rev_at_epoch": 87924,
        "meta_bstar": 0.00081313888,
        "meta_mean_motion_dot": 3.345e-05,
        "meta_mean_motion_ddot": 0,
        "tle_line1": "1 34833U 97051MH  25361.15033780  .00003345  00000+0  81314-3 0  9991",
        "tle_line2": "2 34833  86.3923  44.7821 0021088  54.3467 359.9440 14.52459738879240"
      },
      "geometry": {
        "type": "Point",
        "coordinates": [
          52.49536469663111,
          65.32259820773677
        ]
      }
    },
    {
      "type": "Feature",
      "properties": {
        "norad_id": 34870,
        "name": "IRIDIUM 33 DEB",
        "group": "iridium-33-debris",
        "lat": -64.76222053084055,
        "lon": 135.16032538497106,
        "alt_km": 652.1553862311239,
        "timestamp": "2025-12-27T13:34:49.680851+00:00",
        "meta_object_name": "IRIDIUM 33 DEB",
        "meta_object_id": "1997-051MQ",
        "meta_epoch": "2025-12-27T02:46:31.066176",
        "meta_mean_motion": 14.76712058,
        "meta_eccentricity": 0.00184241,
        "meta_inclination": 86.3107,
        "meta_ra_of_asc_node": 307.499,
        "meta_arg_of_pericenter": 132.9493,
        "meta_mean_anomaly": 239.9601,
        "meta_ephemeris_type": 0,
        "meta_classification_type": "U",
        "meta_norad_cat_id": 34870,
        "meta_element_set_no": 999,
        "meta_rev_at_epoch": 89123,
        "meta_bstar": 0.0017741165,
        "meta_mean_motion_dot": 0.00012485,
        "meta_mean_motion_ddot": 0,
        "tle_line1": "1 34870U 97051MQ  25361.11563734  .00012485  00000+0  17741-2 0  9992",
        "tle_line2": "2 34870  86.3107 307.4990 0018424 132.9493 239.9601 14.76712058891235"
      },
      "geometry": {
        "type": "Point",
        "coordinates": [
          135.16032538497106,
          -64.76222053084055
        ]
      }
    },
    {
      "type": "Feature",
      "properties": {
        "norad_id": 34896,
        "name": "IRIDIUM 33 DEB",
        "group": "iridium-33-debris",
        "lat": -80.57815794185571,
        "lon": 162.79107267000387,
        "alt_km": 682.8658412589684,
        "timestamp": "2025-12-27T13:34:49.680861+00:00",
        "meta_object_name": "IRIDIUM 33 DEB",
        "meta_object_id": "1997-051MY",
        "meta_epoch": "2025-12-24T04:12:44.288640",
        "meta_mean_motion": 14.66381715,
        "meta_eccentricity": 0.00257287,
        "meta_inclination": 86.3299,
        "meta_ra_of_asc_node": 321.5555,
        "meta_arg_of_pericenter": 173.6101,
        "meta_mean_anomaly": 201.3064,
        "meta_ephemeris_type": 0,
        "meta_classification_type": "U",
        "meta_norad_cat_id": 34896,
        "meta_element_set_no": 999,
        "meta_rev_at_epoch": 87787,
        "meta_bstar": 0.00093038371,
        "meta_mean_motion_dot": 5.188e-05,
        "meta_mean_motion_ddot": 0,
        "tle_line1": "1 34896U 97051MY  25358.17551260  .00005188  00000+0  93038-3 0  9999",
        "tle_line2": "2 34896  86.3299 321.5555 0025728 173.6101 201.3064 14.66381715877873"
      },
      "geometry": {
        "type": "Point",
        "coordinates": [
          162.79107267000387,
          -80.57815794185571
        ]
      }
    },
    {
      "type": "Feature",
      "properties": {
        "norad_id": 34926,
        "name": "IRIDIUM 33 DEB",
        "group": "iridium-33-debris",
        "lat": 86.02403743199788,
        "lon": 78.2438782711262,
        "alt_km": 748.0053685896964,
        "timestamp": "2025-12-27T13:34:49.680871+00:00",
        "meta_object_name": "IRIDIUM 33 DEB",
        "meta_object_id": "1997-051NF",
        "meta_epoch": "2025-12-27T06:37:36.803424",
        "meta_mean_motion": 14.55091607,
        "meta_eccentricity": 0.00742635,
        "meta_inclination": 86.1305,
        "meta_ra_of_asc_node": 1.5275,
        "meta_arg_of_pericenter": 242.2402,
        "meta_mean_anomaly": 130.5101,
        "meta_ephemeris_type": 0,
        "meta_classification_type": "U",
        "meta_norad_cat_id": 34926,
        "meta_element_set_no": 999,
        "meta_rev_at_epoch": 86668,
        "meta_bstar": 0.0059756745,
        "meta_mean_motion_dot": 0.00026846,
        "meta_mean_motion_ddot": 0,
        "tle_line1": "1 34926U 97051NF  25361.27612041  .00026846  00000+0  59757-2 0  9996",
        "tle_line2": "2 34926  86.1305   1.5275 0074263 242.2402 130.5101 14.55091607866680"
      },
      "geometry": {
        "type": "Point",
        "coordinates": [
          78.2438782711262,
          86.02403743199788
        ]
      }
    },
    {
      "type": "Feature",
      "properties": {
        "norad_id": 34985,
        "name": "IRIDIUM 33 DEB",
        "group": "iridium-33-debris",
        "lat": -76.928105333621,
        "lon": -113.57168210167727,
        "alt_km": 758.1522899218944,
        "timestamp": "2025-12-27T13:34:49.680882+00:00",
        "meta_object_name": "IRIDIUM 33 DEB",
        "meta_object_id": "1997-051NR",
        "meta_epoch": "2025-12-26T21:58:10.172064",
        "meta_mean_motion": 14.42068347,
        "meta_eccentricity": 0.0022221,
        "meta_inclination": 86.3683,
        "meta_ra_of_asc_node": 50.8313,
        "meta_arg_of_pericenter": 172.8188,
        "meta_mean_anomaly": 309.665,
        "meta_ephemeris_type": 0,
        "meta_classification_type": "U",
        "meta_norad_cat_id": 34985,
        "meta_element_set_no": 999,
        "meta_rev_at_epoch": 87379,
        "meta_bstar": 0.00068645,
        "meta_mean_motion_dot": 2.28e-05,
        "meta_mean_motion_ddot": 0,
        "tle_line1": "1 34985U 97051NR  25360.91539551  .00002280  00000+0  68645-3 0  9998",
        "tle_line2": "2 34985  86.3683  50.8313 0022221 172.8188 309.6650 14.42068347873791"
      },
      "geometry": {
        "type": "Point",
        "coordinates": [
          -113.57168210167727,
          -76.928105333621
        ]
      }
    },
    {
      "type": "Feature",
      "properties": {
        "norad_id": 35051,
        "name": "IRIDIUM 33 DEB",
        "group": "iridium-33-debris",
        "lat": 51.862222971094255,
        "lon": 177.70376151162444,
        "alt_km": 727.3693090444604,
        "timestamp": "2025-12-27T13:34:49.680892+00:00",
        "meta_object_name": "IRIDIUM 33 DEB",
        "meta_object_id": "1997-051NX",
        "meta_epoch": "2025-12-22T18:31:37.744896",
        "meta_mean_motion": 14.47639956,
        "meta_eccentricity": 0.0010302,
        "meta_inclination": 86.324,
        "meta_ra_of_asc_node": 4.4893,
        "meta_arg_of_pericenter": 63.2582,
        "meta_mean_anomaly": 296.9674,
        "meta_ephemeris_type": 0,
        "meta_classification_type": "U",
        "meta_norad_cat_id": 35051,
        "meta_element_set_no": 999,
        "meta_rev_at_epoch": 87141,
        "meta_bstar": 0.00060447572,
        "meta_mean_motion_dot": 2.248e-05,
        "meta_mean_motion_ddot": 0,
        "tle_line1": "1 35051U 97051NX  25356.77196464  .00002248  00000+0  60448-3 0  9991",
        "tle_line2": "2 35051  86.3240   4.4893 0010302  63.2582 296.9674 14.47639956871417"
      },
      "geometry": {
        "type": "Point",
        "coordinates": [
          177.70376151162444,
          51.862222971094255
        ]
      }
    },
    {
      "type": "Feature",
      "properties": {
        "norad_id": 35052,
        "name": "IRIDIUM 33 DEB",
        "group": "iridium-33-debris",
        "lat": 29.266926096278826,
        "lon": -167.94229114378876,
        "alt_km": 764.9525160948988,
        "timestamp": "2025-12-27T13:34:49.680902+00:00",
        "meta_object_name": "IRIDIUM 33 DEB",
        "meta_object_id": "1997-051NY",
        "meta_epoch": "2025-12-26T00:09:21.492000",
        "meta_mean_motion": 14.38507246,
        "meta_eccentricity": 0.00130035,
        "meta_inclination": 86.3301,
        "meta_ra_of_asc_node": 14.7874,
        "meta_arg_of_pericenter": 47.6773,
        "meta_mean_anomaly": 312.5525,
        "meta_ephemeris_type": 0,
        "meta_classification_type": "U",
        "meta_norad_cat_id": 35052,
        "meta_element_set_no": 999,
        "meta_rev_at_epoch": 87466,
        "meta_bstar": 0.00018800221,
        "meta_mean_motion_dot": 5.94e-06,
        "meta_mean_motion_ddot": 0,
        "tle_line1": "1 35052U 97051NY  25360.00649875  .00000594  00000+0  18800-3 0  9999",
        "tle_line2": "2 35052  86.3301  14.7874 0013003  47.6773 312.5525 14.38507246874664"
      },
      "geometry": {
        "type": "Point",
        "coordinates": [
          -167.94229114378876,
          29.266926096278826
        ]
      }
    }
  ]
}